venue_id,name,city,state,country,capacity,venue_type,address,postal_code,created_at,updated_at
ven_000001,San Jose Stadium,San Jose,CA,USA,11016,amphitheater,7045 Market St,58031,2025-11-17T02:43:33.086511,2025-11-17T02:43:33.086512
ven_000002,Jacksonville Center,Jacksonville,FL,USA,9443,arena,6764 Park Ave,34845,2025-11-17T02:43:33.086525,2025-11-17T02:43:33.086525
ven_000003,Uptown Boston Stadium,Boston,MA,USA,4474,hall,7511 Center St,33927,2025-11-17T02:43:33.086530,2025-11-17T02:43:33.086531
ven_000004,Modern Colorado Springs Theater,Colorado Springs,CO,USA,107,club,2999 Park Ave,23933,2025-11-17T02:43:33.086536,2025-11-17T02:43:33.086536
ven_000005,Modern Miami Auditorium,Miami,FL,USA,1928,theater,9298 Park Ave,83246,2025-11-17T02:43:33.086540,2025-11-17T02:43:33.086540
ven_000006,Uptown Austin Center,Austin,TX,USA,7759,amphitheater,414 Broadway,64194,2025-11-17T02:43:33.086546,2025-11-17T02:43:33.086546
ven_000007,Modern Sacramento Venue,Sacramento,CA,USA,412,club,291 Park Ave,22485,2025-11-17T02:43:33.086552,2025-11-17T02:43:33.086552
ven_000008,Phoenix Center,Phoenix,AZ,USA,4132,hall,6195 Center St,40170,2025-11-17T02:43:33.086560,2025-11-17T02:43:33.086560
ven_000009,The Louisville House,Louisville,KY,USA,10858,arena,3560 Center St,84353,2025-11-17T02:43:33.086567,2025-11-17T02:43:33.086567
ven_000010,Classic Tampa Palace,Tampa,FL,USA,15871,arena,9772 Broadway,10026,2025-11-17T02:43:33.086571,2025-11-17T02:43:33.086571
ven_000011,Memphis Amphitheater,Memphis,TN,USA,454,club,3883 Center St,22982,2025-11-17T02:43:33.086576,2025-11-17T02:43:33.086576
ven_000012,Majestic Louisville Amphitheater,Louisville,KY,USA,16873,arena,437 Broadway,80146,2025-11-17T02:43:33.086580,2025-11-17T02:43:33.086580
ven_000013,Modern New York Pavilion,New York,NY,USA,1294,theater,2965 Park Ave,25321,2025-11-17T02:43:33.086584,2025-11-17T02:43:33.086584
ven_000014,Honolulu House,Honolulu,HI,USA,64175,stadium,9699 Main St,93839,2025-11-17T02:43:33.086590,2025-11-17T02:43:33.086590
ven_000015,Royal Columbus Center,Columbus,OH,USA,12981,arena,5165 Market St,58634,2025-11-17T02:43:33.086594,2025-11-17T02:43:33.086594
ven_000016,Denver Arena,Denver,CO,USA,8657,amphitheater,7213 Main St,66443,2025-11-17T02:43:33.086598,2025-11-17T02:43:33.086598
ven_000017,Majestic Mesa Theater,Mesa,AZ,USA,1347,theater,1351 Center St,15937,2025-11-17T02:43:33.086602,2025-11-17T02:43:33.086602
ven_000018,Royal Chicago Auditorium,Chicago,IL,USA,290,club,480 Broadway,52086,2025-11-17T02:43:33.086606,2025-11-17T02:43:33.086606
ven_000019,Seattle Stadium,Seattle,WA,USA,8368,amphitheater,4373 Park Ave,74769,2025-11-17T02:43:33.086611,2025-11-17T02:43:33.086612
ven_000020,Classic Cleveland Pavilion,Cleveland,OH,USA,1492,theater,6492 Park Ave,71794,2025-11-17T02:43:33.086616,2025-11-17T02:43:33.086616
ven_000021,Grand Philadelphia Hall,Philadelphia,PA,USA,400,club,1138 Broadway,98555,2025-11-17T02:43:33.086620,2025-11-17T02:43:33.086620
ven_000022,Uptown San Antonio Stadium,San Antonio,TX,USA,148,club,6220 Market St,91973,2025-11-17T02:43:33.086624,2025-11-17T02:43:33.086624
ven_000023,Metro Dallas Venue,Dallas,TX,USA,10235,arena,6050 Main St,49452,2025-11-17T02:43:33.086628,2025-11-17T02:43:33.086628
ven_000024,Imperial Dallas Theater,Dallas,TX,USA,47124,stadium,2940 Market St,89839,2025-11-17T02:43:33.086631,2025-11-17T02:43:33.086632
ven_000025,The San Francisco Arena,San Francisco,CA,USA,3003,hall,3870 Broadway,45202,2025-11-17T02:43:33.086635,2025-11-17T02:43:33.086636
ven_000026,Baltimore Venue,Baltimore,MD,USA,11047,amphitheater,9350 Market St,26964,2025-11-17T02:43:33.086639,2025-11-17T02:43:33.086639
ven_000027,Fort Worth Theater,Fort Worth,TX,USA,402,club,7910 Park Ave,85618,2025-11-17T02:43:33.086643,2025-11-17T02:43:33.086643
ven_000028,Uptown Indianapolis Club,Indianapolis,IN,USA,10323,arena,2683 Center St,50918,2025-11-17T02:43:33.086647,2025-11-17T02:43:33.086647
ven_000029,Washington Club,Washington,DC,USA,5492,amphitheater,2820 Center St,40251,2025-11-17T02:43:33.086651,2025-11-17T02:43:33.086651
ven_000030,Metro Milwaukee Club,Milwaukee,WI,USA,4079,hall,1806 Center St,31409,2025-11-17T02:43:33.086655,2025-11-17T02:43:33.086655
ven_000031,Classic New York Auditorium,New York,NY,USA,287,club,5606 Market St,56376,2025-11-17T02:43:33.086658,2025-11-17T02:43:33.086659
ven_000032,Royal Louisville Club,Louisville,KY,USA,262,club,7143 Center St,60886,2025-11-17T02:43:33.086662,2025-11-17T02:43:33.086662
ven_000033,Albuquerque Palace,Albuquerque,NM,USA,5135,amphitheater,7898 Broadway,44315,2025-11-17T02:43:33.086666,2025-11-17T02:43:33.086666
ven_000034,Miami Stadium,Miami,FL,USA,155,club,7184 Market St,93767,2025-11-17T02:43:33.086670,2025-11-17T02:43:33.086670
ven_000035,Imperial Detroit Hall,Detroit,MI,USA,257,club,3329 Center St,67610,2025-11-17T02:43:33.086674,2025-11-17T02:43:33.086674
ven_000036,Majestic Tampa Arena,Tampa,FL,USA,5044,arena,4634 Park Ave,13120,2025-11-17T02:43:33.086677,2025-11-17T02:43:33.086677
ven_000037,Uptown Louisville Hall,Louisville,KY,USA,19954,arena,6708 Market St,51788,2025-11-17T02:43:33.086681,2025-11-17T02:43:33.086681
ven_000038,Classic Philadelphia Pavilion,Philadelphia,PA,USA,13136,arena,8087 Center St,81522,2025-11-17T02:43:33.086685,2025-11-17T02:43:33.086685
ven_000039,The Wichita Theater,Wichita,KS,USA,3444,hall,4176 Main St,65475,2025-11-17T02:43:33.086689,2025-11-17T02:43:33.086689
ven_000040,Kansas City House,Kansas City,MO,USA,13039,amphitheater,4220 Market St,31590,2025-11-17T02:43:33.086693,2025-11-17T02:43:33.086693
ven_000041,Metro Philadelphia Auditorium,Philadelphia,PA,USA,47175,stadium,6448 Center St,14439,2025-11-17T02:43:33.086697,2025-11-17T02:43:33.086697
ven_000042,Modern San Jose Amphitheater,San Jose,CA,USA,674,theater,4948 Market St,68559,2025-11-17T02:43:33.086701,2025-11-17T02:43:33.086701
ven_000043,Downtown Albuquerque Palace,Albuquerque,NM,USA,7890,amphitheater,7875 Broadway,99569,2025-11-17T02:43:33.086709,2025-11-17T02:43:33.086709
ven_000044,Atlanta Arena,Atlanta,GA,USA,475,club,6749 Park Ave,21255,2025-11-17T02:43:33.086713,2025-11-17T02:43:33.086713
ven_000045,Imperial Phoenix Auditorium,Phoenix,AZ,USA,38605,stadium,9322 Broadway,85492,2025-11-17T02:43:33.086718,2025-11-17T02:43:33.086718
ven_000046,Royal Seattle Arena,Seattle,WA,USA,7201,amphitheater,1348 Main St,64244,2025-11-17T02:43:33.086722,2025-11-17T02:43:33.086722
ven_000047,Majestic Tampa Center,Tampa,FL,USA,13822,arena,8185 Center St,19633,2025-11-17T02:43:33.086726,2025-11-17T02:43:33.086726
ven_000048,Imperial Raleigh House,Raleigh,NC,USA,57500,stadium,1416 Main St,65540,2025-11-17T02:43:33.086730,2025-11-17T02:43:33.086730
ven_000049,Philadelphia Amphitheater,Philadelphia,PA,USA,6343,amphitheater,4806 Park Ave,25259,2025-11-17T02:43:33.086733,2025-11-17T02:43:33.086733
ven_000050,Wichita Stadium,Wichita,KS,USA,15064,arena,8437 Park Ave,77965,2025-11-17T02:43:33.086737,2025-11-17T02:43:33.086737
ven_000051,Imperial Denver Pavilion,Denver,CO,USA,23077,stadium,8498 Market St,20170,2025-11-17T02:43:33.086741,2025-11-17T02:43:33.086741
ven_000052,Uptown Kansas City Arena,Kansas City,MO,USA,4328,amphitheater,3821 Market St,91238,2025-11-17T02:43:33.086744,2025-11-17T02:43:33.086744
ven_000053,Denver Amphitheater,Denver,CO,USA,1985,theater,5968 Broadway,50637,2025-11-17T02:43:33.086748,2025-11-17T02:43:33.086748
ven_000054,Imperial Milwaukee Club,Milwaukee,WI,USA,3525,hall,9345 Park Ave,18364,2025-11-17T02:43:33.086752,2025-11-17T02:43:33.086752
ven_000055,Uptown Charlotte Hall,Charlotte,NC,USA,3631,hall,1174 Broadway,18759,2025-11-17T02:43:33.086755,2025-11-17T02:43:33.086755
ven_000056,Omaha House,Omaha,NE,USA,13144,amphitheater,1523 Center St,79044,2025-11-17T02:43:33.086759,2025-11-17T02:43:33.086759
ven_000057,Grand Columbus House,Columbus,OH,USA,5141,amphitheater,1597 Market St,43698,2025-11-17T02:43:33.086763,2025-11-17T02:43:33.086763
ven_000058,Uptown Charlotte House,Charlotte,NC,USA,49789,stadium,780 Broadway,52454,2025-11-17T02:43:33.086766,2025-11-17T02:43:33.086767
ven_000059,Louisville Venue,Louisville,KY,USA,767,theater,500 Market St,11790,2025-11-17T02:43:33.086771,2025-11-17T02:43:33.086771
ven_000060,The Mesa House,Mesa,AZ,USA,418,club,6313 Center St,99762,2025-11-17T02:43:33.086776,2025-11-17T02:43:33.086777
ven_000061,Metro San Francisco Auditorium,San Francisco,CA,USA,1264,theater,7394 Broadway,89448,2025-11-17T02:43:33.086780,2025-11-17T02:43:33.086781
ven_000062,Phoenix Hall,Phoenix,AZ,USA,67645,stadium,637 Broadway,21055,2025-11-17T02:43:33.086786,2025-11-17T02:43:33.086786
ven_000063,Colorado Springs Amphitheater,Colorado Springs,CO,USA,6171,amphitheater,8825 Center St,23580,2025-11-17T02:43:33.086790,2025-11-17T02:43:33.086790
ven_000064,Uptown Fort Worth House,Fort Worth,TX,USA,32714,stadium,6365 Park Ave,65026,2025-11-17T02:43:33.086794,2025-11-17T02:43:33.086794
ven_000065,The Fort Worth House,Fort Worth,TX,USA,416,club,4966 Market St,14230,2025-11-17T02:43:33.086798,2025-11-17T02:43:33.086798
ven_000066,Portland Venue,Portland,OR,USA,3328,hall,7402 Broadway,88174,2025-11-17T02:43:33.086802,2025-11-17T02:43:33.086802
ven_000067,Royal Tulsa Arena,Tulsa,OK,USA,62994,stadium,4303 Main St,20056,2025-11-17T02:43:33.086806,2025-11-17T02:43:33.086806
ven_000068,Metro Nashville Center,Nashville,TN,USA,5929,arena,460 Park Ave,64504,2025-11-17T02:43:33.086810,2025-11-17T02:43:33.086810
ven_000069,Central Atlanta Arena,Atlanta,GA,USA,1504,hall,520 Broadway,59990,2025-11-17T02:43:33.086814,2025-11-17T02:43:33.086814
ven_000070,Downtown Wichita Theater,Wichita,KS,USA,6457,amphitheater,9747 Park Ave,56355,2025-11-17T02:43:33.086817,2025-11-17T02:43:33.086818
ven_000071,Uptown Memphis Amphitheater,Memphis,TN,USA,1484,theater,7664 Center St,86026,2025-11-17T02:43:33.086821,2025-11-17T02:43:33.086821
ven_000072,Majestic Baltimore Stadium,Baltimore,MD,USA,4720,hall,8118 Broadway,52879,2025-11-17T02:43:33.086825,2025-11-17T02:43:33.086825
ven_000073,Grand Honolulu Venue,Honolulu,HI,USA,427,club,4047 Center St,37524,2025-11-17T02:43:33.086829,2025-11-17T02:43:33.086829
ven_000074,Classic Tucson Club,Tucson,AZ,USA,1622,theater,8245 Main St,19635,2025-11-17T02:43:33.086833,2025-11-17T02:43:33.086833
ven_000075,Imperial New York Palace,New York,NY,USA,11017,amphitheater,5394 Market St,36254,2025-11-17T02:43:33.086837,2025-11-17T02:43:33.086837
ven_000076,San Diego Pavilion,San Diego,CA,USA,1065,hall,9749 Market St,22926,2025-11-17T02:43:33.086848,2025-11-17T02:43:33.086848
ven_000077,Imperial Seattle Auditorium,Seattle,WA,USA,223,club,4918 Main St,96097,2025-11-17T02:43:33.086852,2025-11-17T02:43:33.086852
ven_000078,Uptown Washington Pavilion,Washington,DC,USA,53710,stadium,8446 Center St,36931,2025-11-17T02:43:33.086856,2025-11-17T02:43:33.086856
ven_000079,Majestic Dallas Venue,Dallas,TX,USA,2015,hall,2157 Market St,40706,2025-11-17T02:43:33.086860,2025-11-17T02:43:33.086860
ven_000080,Royal St. Louis Hall,St. Louis,MO,USA,20917,stadium,3986 Market St,52607,2025-11-17T02:43:33.086864,2025-11-17T02:43:33.086864
ven_000081,San Jose Amphitheater,San Jose,CA,USA,7549,arena,3455 Park Ave,27668,2025-11-17T02:43:33.086868,2025-11-17T02:43:33.086868
ven_000082,Miami House,Miami,FL,USA,3379,amphitheater,5417 Main St,32628,2025-11-17T02:43:33.086871,2025-11-17T02:43:33.086871
ven_000083,Classic San Francisco Palace,San Francisco,CA,USA,29514,stadium,1016 Broadway,43220,2025-11-17T02:43:33.086875,2025-11-17T02:43:33.086875
ven_000084,Grand New Orleans Stadium,New Orleans,LA,USA,361,club,493 Market St,31469,2025-11-17T02:43:33.086879,2025-11-17T02:43:33.086879
ven_000085,Portland Venue,Portland,OR,USA,1196,theater,115 Center St,61034,2025-11-17T02:43:33.086884,2025-11-17T02:43:33.086884
ven_000086,Imperial Tucson Club,Tucson,AZ,USA,1362,theater,2166 Center St,49821,2025-11-17T02:43:33.086888,2025-11-17T02:43:33.086888
ven_000087,Classic Tulsa Hall,Tulsa,OK,USA,6099,amphitheater,5986 Park Ave,45969,2025-11-17T02:43:33.086893,2025-11-17T02:43:33.086893
ven_000088,Majestic Dallas Palace,Dallas,TX,USA,1594,theater,1260 Main St,48823,2025-11-17T02:43:33.086897,2025-11-17T02:43:33.086897
ven_000089,Modern Milwaukee Auditorium,Milwaukee,WI,USA,37521,stadium,7073 Main St,58681,2025-11-17T02:43:33.086901,2025-11-17T02:43:33.086901
ven_000090,Majestic Tampa Arena,Tampa,FL,USA,4285,hall,8933 Main St,90082,2025-11-17T02:43:33.086904,2025-11-17T02:43:33.086904
ven_000091,Metro San Jose House,San Jose,CA,USA,41237,stadium,7645 Broadway,69401,2025-11-17T02:43:33.086908,2025-11-17T02:43:33.086908
ven_000092,Classic Los Angeles Amphitheater,Los Angeles,CA,USA,1471,theater,8821 Broadway,92154,2025-11-17T02:43:33.086911,2025-11-17T02:43:33.086912
ven_000093,Royal Wichita Venue,Wichita,KS,USA,28062,stadium,9711 Park Ave,16165,2025-11-17T02:43:33.086915,2025-11-17T02:43:33.086915
ven_000094,Classic Washington Club,Washington,DC,USA,6470,amphitheater,456 Broadway,73552,2025-11-17T02:43:33.086919,2025-11-17T02:43:33.086919
ven_000095,Metro Baltimore Stadium,Baltimore,MD,USA,45092,stadium,5888 Market St,60390,2025-11-17T02:43:33.086923,2025-11-17T02:43:33.086923
ven_000096,Baltimore Stadium,Baltimore,MD,USA,53203,stadium,4337 Market St,28318,2025-11-17T02:43:33.086926,2025-11-17T02:43:33.086926
ven_000097,Classic Fresno Arena,Fresno,CA,USA,10442,amphitheater,916 Broadway,56770,2025-11-17T02:43:33.086929,2025-11-17T02:43:33.086929
ven_000098,Imperial Nashville Amphitheater,Nashville,TN,USA,7770,arena,2134 Main St,16087,2025-11-17T02:43:33.086933,2025-11-17T02:43:33.086933
ven_000099,Metro Chicago Auditorium,Chicago,IL,USA,2845,hall,2851 Main St,70624,2025-11-17T02:43:33.086941,2025-11-17T02:43:33.086941
ven_000100,Modern Denver Amphitheater,Denver,CO,USA,234,club,8860 Main St,73809,2025-11-17T02:43:33.086944,2025-11-17T02:43:33.086944
ven_000101,Imperial Tampa Club,Tampa,FL,USA,298,club,8949 Center St,33645,2025-11-17T02:43:33.086948,2025-11-17T02:43:33.086948
ven_000102,Uptown Colorado Springs Arena,Colorado Springs,CO,USA,304,club,1868 Center St,46418,2025-11-17T02:43:33.086951,2025-11-17T02:43:33.086951
ven_000103,Majestic Raleigh Hall,Raleigh,NC,USA,9309,amphitheater,4442 Park Ave,41525,2025-11-17T02:43:33.086955,2025-11-17T02:43:33.086955
ven_000104,Grand Honolulu Club,Honolulu,HI,USA,16282,arena,5448 Park Ave,44634,2025-11-17T02:43:33.086958,2025-11-17T02:43:33.086958
ven_000105,Royal Tulsa House,Tulsa,OK,USA,2440,hall,5545 Main St,65331,2025-11-17T02:43:33.086962,2025-11-17T02:43:33.086962
ven_000106,Majestic San Francisco Palace,San Francisco,CA,USA,1101,theater,6273 Center St,54160,2025-11-17T02:43:33.086965,2025-11-17T02:43:33.086965
ven_000107,Denver House,Denver,CO,USA,199,club,4708 Main St,99989,2025-11-17T02:43:33.086970,2025-11-17T02:43:33.086970
ven_000108,Royal New Orleans Pavilion,New Orleans,LA,USA,1802,theater,4899 Center St,31851,2025-11-17T02:43:33.086973,2025-11-17T02:43:33.086973
ven_000109,San Antonio Pavilion,San Antonio,TX,USA,6339,arena,5053 Broadway,61112,2025-11-17T02:43:33.086977,2025-11-17T02:43:33.086977
ven_000110,Downtown Cleveland Center,Cleveland,OH,USA,11865,amphitheater,1883 Broadway,31296,2025-11-17T02:43:33.086981,2025-11-17T02:43:33.086981
ven_000111,San Jose Arena,San Jose,CA,USA,3143,amphitheater,8200 Center St,24894,2025-11-17T02:43:33.086984,2025-11-17T02:43:33.086984
ven_000112,Imperial Fort Worth Arena,Fort Worth,TX,USA,279,club,1289 Park Ave,84605,2025-11-17T02:43:33.086987,2025-11-17T02:43:33.086987
ven_000113,Modern New York Stadium,New York,NY,USA,5735,arena,7409 Main St,30915,2025-11-17T02:43:33.086991,2025-11-17T02:43:33.086991
ven_000114,Royal Wichita Palace,Wichita,KS,USA,416,club,28 Center St,87581,2025-11-17T02:43:33.086994,2025-11-17T02:43:33.086994
ven_000115,Uptown Columbus Venue,Columbus,OH,USA,8945,arena,6972 Main St,41647,2025-11-17T02:43:33.086998,2025-11-17T02:43:33.086998
ven_000116,Royal St. Louis Amphitheater,St. Louis,MO,USA,421,club,5729 Market St,92532,2025-11-17T02:43:33.087001,2025-11-17T02:43:33.087001
ven_000117,San Diego Auditorium,San Diego,CA,USA,5842,amphitheater,1824 Broadway,33543,2025-11-17T02:43:33.087004,2025-11-17T02:43:33.087004
ven_000118,Imperial Colorado Springs Auditorium,Colorado Springs,CO,USA,1067,theater,4945 Market St,41466,2025-11-17T02:43:33.087008,2025-11-17T02:43:33.087008
ven_000119,Royal Phoenix Center,Phoenix,AZ,USA,8530,arena,434 Center St,77047,2025-11-17T02:43:33.087011,2025-11-17T02:43:33.087012
ven_000120,Washington Stadium,Washington,DC,USA,365,club,7309 Market St,73752,2025-11-17T02:43:33.087015,2025-11-17T02:43:33.087015
ven_000121,Uptown Denver Theater,Denver,CO,USA,28198,stadium,6322 Park Ave,95320,2025-11-17T02:43:33.087018,2025-11-17T02:43:33.087018
ven_000122,Uptown Portland Stadium,Portland,OR,USA,309,club,7430 Center St,56341,2025-11-17T02:43:33.087022,2025-11-17T02:43:33.087022
ven_000123,Classic St. Louis Auditorium,St. Louis,MO,USA,64581,stadium,9826 Broadway,48885,2025-11-17T02:43:33.087025,2025-11-17T02:43:33.087025
ven_000124,Royal San Antonio Palace,San Antonio,TX,USA,254,club,3497 Park Ave,46334,2025-11-17T02:43:33.087029,2025-11-17T02:43:33.087029
ven_000125,Raleigh Auditorium,Raleigh,NC,USA,19088,arena,4356 Center St,38374,2025-11-17T02:43:33.087032,2025-11-17T02:43:33.087032
ven_000126,Modern Mesa Club,Mesa,AZ,USA,61712,stadium,7949 Main St,37215,2025-11-17T02:43:33.087035,2025-11-17T02:43:33.087035
ven_000127,Royal St. Louis Palace,St. Louis,MO,USA,183,club,7940 Park Ave,25495,2025-11-17T02:43:33.087039,2025-11-17T02:43:33.087039
ven_000128,Imperial Kansas City Hall,Kansas City,MO,USA,1404,theater,5176 Market St,86151,2025-11-17T02:43:33.087042,2025-11-17T02:43:33.087043
ven_000129,Majestic Oakland Pavilion,Oakland,CA,USA,259,club,5704 Market St,37438,2025-11-17T02:43:33.087046,2025-11-17T02:43:33.087046
ven_000130,Central Tampa Stadium,Tampa,FL,USA,50574,stadium,5944 Main St,30182,2025-11-17T02:43:33.087050,2025-11-17T02:43:33.087050
ven_000131,Memphis Stadium,Memphis,TN,USA,796,theater,5771 Market St,59161,2025-11-17T02:43:33.087053,2025-11-17T02:43:33.087053
ven_000132,Majestic Austin Club,Austin,TX,USA,1110,hall,74 Park Ave,88651,2025-11-17T02:43:33.087058,2025-11-17T02:43:33.087058
ven_000133,Columbus Venue,Columbus,OH,USA,12965,amphitheater,1654 Main St,63083,2025-11-17T02:43:33.087061,2025-11-17T02:43:33.087062
ven_000134,Imperial New York Arena,New York,NY,USA,2977,hall,2830 Center St,34516,2025-11-17T02:43:33.087065,2025-11-17T02:43:33.087065
ven_000135,Grand Raleigh Center,Raleigh,NC,USA,2565,hall,2729 Main St,44817,2025-11-17T02:43:33.087068,2025-11-17T02:43:33.087068
ven_000136,Modern Nashville Amphitheater,Nashville,TN,USA,3577,hall,8957 Main St,51744,2025-11-17T02:43:33.087073,2025-11-17T02:43:33.087073
ven_000137,Majestic Oakland Center,Oakland,CA,USA,1416,theater,1882 Market St,44188,2025-11-17T02:43:33.087077,2025-11-17T02:43:33.087077
ven_000138,Detroit Pavilion,Detroit,MI,USA,35039,stadium,7840 Broadway,41018,2025-11-17T02:43:33.087081,2025-11-17T02:43:33.087081
ven_000139,Uptown Los Angeles Club,Los Angeles,CA,USA,70866,stadium,5095 Main St,43184,2025-11-17T02:43:33.087086,2025-11-17T02:43:33.087086
ven_000140,Downtown Indianapolis House,Indianapolis,IN,USA,1827,theater,778 Park Ave,98339,2025-11-17T02:43:33.087089,2025-11-17T02:43:33.087089
ven_000141,Central Sacramento Arena,Sacramento,CA,USA,31768,stadium,746 Market St,21091,2025-11-17T02:43:33.087093,2025-11-17T02:43:33.087093
ven_000142,Grand Phoenix House,Phoenix,AZ,USA,19041,arena,2595 Park Ave,64518,2025-11-17T02:43:33.087096,2025-11-17T02:43:33.087096
ven_000143,Phoenix Pavilion,Phoenix,AZ,USA,26069,stadium,1612 Park Ave,14907,2025-11-17T02:43:33.087100,2025-11-17T02:43:33.087100
ven_000144,Modern Boston Stadium,Boston,MA,USA,36364,stadium,7886 Main St,54872,2025-11-17T02:43:33.087103,2025-11-17T02:43:33.087103
ven_000145,Majestic Tucson Stadium,Tucson,AZ,USA,14901,arena,8567 Park Ave,36289,2025-11-17T02:43:33.087106,2025-11-17T02:43:33.087107
ven_000146,Modern Charlotte Stadium,Charlotte,NC,USA,249,club,2297 Market St,79586,2025-11-17T02:43:33.087110,2025-11-17T02:43:33.087110
ven_000147,Majestic Atlanta Theater,Atlanta,GA,USA,62471,stadium,3025 Center St,45204,2025-11-17T02:43:33.087114,2025-11-17T02:43:33.087114
ven_000148,The Los Angeles Stadium,Los Angeles,CA,USA,7804,arena,7002 Market St,49012,2025-11-17T02:43:33.087117,2025-11-17T02:43:33.087117
ven_000149,Classic Dallas Amphitheater,Dallas,TX,USA,11948,amphitheater,8253 Market St,71154,2025-11-17T02:43:33.087121,2025-11-17T02:43:33.087121
ven_000150,Classic New Orleans Palace,New Orleans,LA,USA,14133,arena,432 Broadway,53017,2025-11-17T02:43:33.087124,2025-11-17T02:43:33.087124
ven_000151,Majestic Jacksonville Auditorium 0,Jacksonville,FL,USA,580,theater,2043 Market St,89722,2025-11-17T02:43:33.087128,2025-11-17T02:43:33.087128
ven_000152,Modern Honolulu Venue 1,Honolulu,HI,USA,17021,arena,4750 Market St,57321,2025-11-17T02:43:33.087162,2025-11-17T02:43:33.087162
ven_000153,Uptown Cleveland Arena 2,Cleveland,OH,USA,1254,theater,2304 Main St,81001,2025-11-17T02:43:33.087166,2025-11-17T02:43:33.087166
ven_000154,Uptown Dallas Center 3,Dallas,TX,USA,1998,theater,3222 Center St,13395,2025-11-17T02:43:33.087170,2025-11-17T02:43:33.087170
ven_000155,Imperial Kansas City Hall 4,Kansas City,MO,USA,5949,amphitheater,6100 Main St,92880,2025-11-17T02:43:33.087174,2025-11-17T02:43:33.087174
ven_000156,Modern Jacksonville Stadium 5,Jacksonville,FL,USA,17075,arena,9241 Main St,59591,2025-11-17T02:43:33.087178,2025-11-17T02:43:33.087178
ven_000157,Royal Kansas City Center 6,Kansas City,MO,USA,5570,arena,358 Center St,47690,2025-11-17T02:43:33.087182,2025-11-17T02:43:33.087182
ven_000158,Uptown Portland House 7,Portland,OR,USA,1985,hall,1808 Market St,48307,2025-11-17T02:43:33.087185,2025-11-17T02:43:33.087186
ven_000159,Metro Seattle House 8,Seattle,WA,USA,190,club,1249 Park Ave,72396,2025-11-17T02:43:33.087189,2025-11-17T02:43:33.087189
ven_000160,Memphis Club 9,Memphis,TN,USA,5721,amphitheater,7703 Park Ave,62712,2025-11-17T02:43:33.087193,2025-11-17T02:43:33.087193
ven_000161,Central Philadelphia Theater 0,Philadelphia,PA,USA,7423,amphitheater,7722 Park Ave,91681,2025-11-17T02:43:33.087197,2025-11-17T02:43:33.087197
ven_000162,San Antonio Amphitheater 1,San Antonio,TX,USA,1819,theater,4618 Market St,33589,2025-11-17T02:43:33.087201,2025-11-17T02:43:33.087201
ven_000163,Classic San Antonio Hall 2,San Antonio,TX,USA,18709,arena,5112 Park Ave,47989,2025-11-17T02:43:33.087205,2025-11-17T02:43:33.087205
ven_000164,Downtown Fort Worth Palace 3,Fort Worth,TX,USA,4834,hall,2032 Park Ave,40030,2025-11-17T02:43:33.087208,2025-11-17T02:43:33.087209
ven_000165,Houston Stadium 4,Houston,TX,USA,201,club,4186 Park Ave,95948,2025-11-17T02:43:33.087212,2025-11-17T02:43:33.087212
ven_000166,Mesa Arena 5,Mesa,AZ,USA,13165,arena,1819 Market St,40430,2025-11-17T02:43:33.087216,2025-11-17T02:43:33.087216
ven_000167,Metro New York Pavilion 6,New York,NY,USA,47942,stadium,7858 Center St,34265,2025-11-17T02:43:33.087220,2025-11-17T02:43:33.087220
ven_000168,Central Austin Arena 7,Austin,TX,USA,11197,arena,7379 Center St,22851,2025-11-17T02:43:33.087224,2025-11-17T02:43:33.087224
ven_000169,Royal Boston Hall 8,Boston,MA,USA,132,club,9930 Center St,38878,2025-11-17T02:43:33.087230,2025-11-17T02:43:33.087230
ven_000170,Uptown Tucson Club 9,Tucson,AZ,USA,25129,stadium,203 Park Ave,69936,2025-11-17T02:43:33.087235,2025-11-17T02:43:33.087235
ven_000171,Grand Boston Amphitheater 0,Boston,MA,USA,15789,arena,5254 Park Ave,86026,2025-11-17T02:43:33.087239,2025-11-17T02:43:33.087239
ven_000172,Detroit Palace 1,Detroit,MI,USA,6812,arena,9401 Market St,80982,2025-11-17T02:43:33.087243,2025-11-17T02:43:33.087243
ven_000173,Metro Detroit Theater 2,Detroit,MI,USA,47232,stadium,7746 Park Ave,19222,2025-11-17T02:43:33.087247,2025-11-17T02:43:33.087247
ven_000174,Central Seattle Amphitheater 3,Seattle,WA,USA,12250,arena,1074 Main St,27414,2025-11-17T02:43:33.087252,2025-11-17T02:43:33.087252
ven_000175,Imperial Indianapolis Theater 4,Indianapolis,IN,USA,1598,theater,697 Park Ave,63915,2025-11-17T02:43:33.087255,2025-11-17T02:43:33.087255
ven_000176,Central Oakland Center 5,Oakland,CA,USA,30446,stadium,5795 Main St,29169,2025-11-17T02:43:33.087259,2025-11-17T02:43:33.087259
ven_000177,Classic Oakland Club 6,Oakland,CA,USA,14427,amphitheater,5083 Main St,85123,2025-11-17T02:43:33.087263,2025-11-17T02:43:33.087263
ven_000178,Honolulu Club 7,Honolulu,HI,USA,395,club,4983 Park Ave,81707,2025-11-17T02:43:33.087267,2025-11-17T02:43:33.087267
ven_000179,Metro Colorado Springs Venue 8,Colorado Springs,CO,USA,4322,amphitheater,7579 Broadway,16518,2025-11-17T02:43:33.087272,2025-11-17T02:43:33.087272
ven_000180,Colorado Springs House 9,Colorado Springs,CO,USA,5991,amphitheater,3610 Park Ave,87969,2025-11-17T02:43:33.087276,2025-11-17T02:43:33.087276
ven_000181,Classic Cleveland Venue 0,Cleveland,OH,USA,27392,stadium,2967 Broadway,31191,2025-11-17T02:43:33.087280,2025-11-17T02:43:33.087280
ven_000182,Downtown New Orleans Auditorium 1,New Orleans,LA,USA,11839,amphitheater,3228 Broadway,18853,2025-11-17T02:43:33.087283,2025-11-17T02:43:33.087284
ven_000183,Imperial Cleveland Amphitheater 2,Cleveland,OH,USA,655,theater,5334 Broadway,52955,2025-11-17T02:43:33.087288,2025-11-17T02:43:33.087288
ven_000184,Fresno House 3,Fresno,CA,USA,9572,arena,5188 Main St,26962,2025-11-17T02:43:33.087291,2025-11-17T02:43:33.087292
ven_000185,Grand Colorado Springs Theater 4,Colorado Springs,CO,USA,4001,hall,6624 Market St,83091,2025-11-17T02:43:33.087296,2025-11-17T02:43:33.087296
ven_000186,Royal Raleigh Amphitheater 5,Raleigh,NC,USA,1903,theater,7656 Market St,32643,2025-11-17T02:43:33.087301,2025-11-17T02:43:33.087301
ven_000187,Colorado Springs Center 6,Colorado Springs,CO,USA,13293,amphitheater,7536 Center St,92767,2025-11-17T02:43:33.087304,2025-11-17T02:43:33.087304
ven_000188,Las Vegas Hall 7,Las Vegas,NV,USA,3823,hall,6866 Market St,67687,2025-11-17T02:43:33.087308,2025-11-17T02:43:33.087308
ven_000189,Imperial San Jose Club 8,San Jose,CA,USA,6531,arena,5204 Center St,67509,2025-11-17T02:43:33.087312,2025-11-17T02:43:33.087312
ven_000190,Grand Tampa Venue 9,Tampa,FL,USA,140,club,9122 Broadway,42172,2025-11-17T02:43:33.087316,2025-11-17T02:43:33.087316
ven_000191,Wichita Stadium 0,Wichita,KS,USA,2483,hall,7789 Market St,91919,2025-11-17T02:43:33.087320,2025-11-17T02:43:33.087320
ven_000192,Modern Anaheim Arena 1,Anaheim,CA,USA,4825,hall,5432 Broadway,51902,2025-11-17T02:43:33.087323,2025-11-17T02:43:33.087323
ven_000193,Royal Fort Worth Hall 2,Fort Worth,TX,USA,122,club,3796 Park Ave,57160,2025-11-17T02:43:33.087327,2025-11-17T02:43:33.087327
ven_000194,New York Amphitheater 3,New York,NY,USA,2193,hall,9012 Center St,61817,2025-11-17T02:43:33.087331,2025-11-17T02:43:33.087331
ven_000195,Majestic Honolulu Theater 4,Honolulu,HI,USA,3376,hall,5247 Broadway,80688,2025-11-17T02:43:33.087335,2025-11-17T02:43:33.087335
ven_000196,Metro Los Angeles Center 5,Los Angeles,CA,USA,4596,amphitheater,6226 Center St,38299,2025-11-17T02:43:33.087338,2025-11-17T02:43:33.087338
ven_000197,Jacksonville Amphitheater 6,Jacksonville,FL,USA,14688,arena,6658 Park Ave,11374,2025-11-17T02:43:33.087342,2025-11-17T02:43:33.087342
ven_000198,Majestic Colorado Springs Hall 7,Colorado Springs,CO,USA,4918,hall,5819 Park Ave,24628,2025-11-17T02:43:33.087346,2025-11-17T02:43:33.087346
ven_000199,Majestic Miami Amphitheater 8,Miami,FL,USA,3858,hall,478 Park Ave,42782,2025-11-17T02:43:33.087350,2025-11-17T02:43:33.087350
ven_000200,Modern Phoenix Auditorium 9,Phoenix,AZ,USA,3587,hall,6985 Broadway,16901,2025-11-17T02:43:33.087355,2025-11-17T02:43:33.087355
ven_000201,Historic Wichita Hall 0,Wichita,KS,USA,54663,stadium,9364 Market St,94371,2025-11-17T02:43:33.087359,2025-11-17T02:43:33.087359
ven_000202,Indianapolis Theater 1,Indianapolis,IN,USA,2025,hall,7569 Park Ave,46567,2025-11-17T02:43:33.087363,2025-11-17T02:43:33.087363
ven_000203,Memphis Palace 2,Memphis,TN,USA,1595,hall,7134 Park Ave,73061,2025-11-17T02:43:33.087366,2025-11-17T02:43:33.087366
ven_000204,Modern Portland Palace 3,Portland,OR,USA,3151,hall,7546 Market St,59120,2025-11-17T02:43:33.087372,2025-11-17T02:43:33.087372
ven_000205,Downtown Sacramento House 4,Sacramento,CA,USA,14973,amphitheater,1820 Broadway,34641,2025-11-17T02:43:33.087375,2025-11-17T02:43:33.087375
ven_000206,The Oakland Club 5,Oakland,CA,USA,878,theater,1216 Main St,49298,2025-11-17T02:43:33.087379,2025-11-17T02:43:33.087379
ven_000207,Royal New Orleans Amphitheater 6,New Orleans,LA,USA,22279,stadium,7394 Center St,89175,2025-11-17T02:43:33.087383,2025-11-17T02:43:33.087383
ven_000208,Grand Los Angeles Stadium 7,Los Angeles,CA,USA,5825,arena,164 Park Ave,33403,2025-11-17T02:43:33.087387,2025-11-17T02:43:33.087387
ven_000209,Portland Pavilion 8,Portland,OR,USA,15852,arena,9956 Main St,38478,2025-11-17T02:43:33.087391,2025-11-17T02:43:33.087391
ven_000210,Royal Nashville Pavilion 9,Nashville,TN,USA,7711,amphitheater,1543 Broadway,71724,2025-11-17T02:43:33.087394,2025-11-17T02:43:33.087394
ven_000211,Uptown Minneapolis House 0,Minneapolis,MN,USA,29417,stadium,6421 Broadway,18027,2025-11-17T02:43:33.087398,2025-11-17T02:43:33.087398
ven_000212,Majestic Phoenix Theater 1,Phoenix,AZ,USA,278,club,3524 Park Ave,18282,2025-11-17T02:43:33.087402,2025-11-17T02:43:33.087402
ven_000213,Majestic Kansas City Club 2,Kansas City,MO,USA,44519,stadium,7780 Park Ave,97061,2025-11-17T02:43:33.087406,2025-11-17T02:43:33.087406
ven_000214,Uptown Honolulu Venue 3,Honolulu,HI,USA,409,club,1966 Park Ave,43568,2025-11-17T02:43:33.087410,2025-11-17T02:43:33.087410
ven_000215,Tulsa Auditorium 4,Tulsa,OK,USA,58531,stadium,2246 Main St,96724,2025-11-17T02:43:33.087414,2025-11-17T02:43:33.087414
ven_000216,Memphis Pavilion 5,Memphis,TN,USA,2578,hall,7897 Main St,44132,2025-11-17T02:43:33.087417,2025-11-17T02:43:33.087417
ven_000217,Chicago Club 6,Chicago,IL,USA,11412,amphitheater,8977 Market St,86127,2025-11-17T02:43:33.087421,2025-11-17T02:43:33.087421
ven_000218,Majestic Wichita Pavilion 7,Wichita,KS,USA,1298,hall,4810 Park Ave,66279,2025-11-17T02:43:33.087425,2025-11-17T02:43:33.087425
ven_000219,Raleigh Hall 8,Raleigh,NC,USA,486,club,4263 Main St,46340,2025-11-17T02:43:33.087434,2025-11-17T02:43:33.087434
ven_000220,Tulsa Amphitheater 9,Tulsa,OK,USA,235,club,8351 Market St,68504,2025-11-17T02:43:33.087438,2025-11-17T02:43:33.087438
ven_000221,Royal Seattle Auditorium 0,Seattle,WA,USA,1639,theater,7442 Market St,12819,2025-11-17T02:43:33.087442,2025-11-17T02:43:33.087442
ven_000222,Historic San Antonio Amphitheater 1,San Antonio,TX,USA,19678,arena,8307 Center St,91540,2025-11-17T02:43:33.087446,2025-11-17T02:43:33.087446
ven_000223,San Jose Center 2,San Jose,CA,USA,11482,amphitheater,6634 Park Ave,70428,2025-11-17T02:43:33.087450,2025-11-17T02:43:33.087450
ven_000224,Imperial San Diego House 3,San Diego,CA,USA,2068,hall,7 Center St,41498,2025-11-17T02:43:33.087453,2025-11-17T02:43:33.087453
ven_000225,The Minneapolis House 4,Minneapolis,MN,USA,1726,theater,5184 Center St,10225,2025-11-17T02:43:33.087457,2025-11-17T02:43:33.087457
ven_000226,Metro Seattle Stadium 5,Seattle,WA,USA,4141,hall,3046 Main St,33831,2025-11-17T02:43:33.087461,2025-11-17T02:43:33.087461
ven_000227,Central Detroit Hall 6,Detroit,MI,USA,306,club,1950 Market St,21639,2025-11-17T02:43:33.087465,2025-11-17T02:43:33.087465
ven_000228,Imperial Chicago Pavilion 7,Chicago,IL,USA,37234,stadium,7079 Center St,79882,2025-11-17T02:43:33.087469,2025-11-17T02:43:33.087469
ven_000229,The Portland Venue 8,Portland,OR,USA,11290,amphitheater,9764 Main St,59032,2025-11-17T02:43:33.087472,2025-11-17T02:43:33.087472
ven_000230,Sacramento Amphitheater 9,Sacramento,CA,USA,2110,hall,1084 Main St,98874,2025-11-17T02:43:33.087476,2025-11-17T02:43:33.087476
ven_000231,Grand Honolulu Palace 0,Honolulu,HI,USA,456,club,6056 Broadway,73729,2025-11-17T02:43:33.087481,2025-11-17T02:43:33.087481
ven_000232,Modern Chicago Club 1,Chicago,IL,USA,591,theater,8146 Park Ave,23646,2025-11-17T02:43:33.087485,2025-11-17T02:43:33.087486
ven_000233,Portland Amphitheater 2,Portland,OR,USA,4729,hall,1220 Market St,43467,2025-11-17T02:43:33.087489,2025-11-17T02:43:33.087489
ven_000234,The Albuquerque Auditorium 3,Albuquerque,NM,USA,6589,amphitheater,3027 Park Ave,83370,2025-11-17T02:43:33.087493,2025-11-17T02:43:33.087494
ven_000235,Classic Denver Arena 4,Denver,CO,USA,7870,amphitheater,6667 Main St,65159,2025-11-17T02:43:33.087497,2025-11-17T02:43:33.087497
ven_000236,Nashville Stadium 5,Nashville,TN,USA,5369,amphitheater,816 Main St,75619,2025-11-17T02:43:33.087502,2025-11-17T02:43:33.087503
ven_000237,Historic Kansas City Stadium 6,Kansas City,MO,USA,193,club,5463 Broadway,22222,2025-11-17T02:43:33.087507,2025-11-17T02:43:33.087507
ven_000238,Classic Chicago Pavilion 7,Chicago,IL,USA,1287,hall,5836 Park Ave,93574,2025-11-17T02:43:33.087510,2025-11-17T02:43:33.087510
ven_000239,Imperial Houston Auditorium 8,Houston,TX,USA,36215,stadium,8294 Park Ave,20868,2025-11-17T02:43:33.087514,2025-11-17T02:43:33.087514
ven_000240,Majestic Houston Club 9,Houston,TX,USA,2354,hall,7753 Market St,78510,2025-11-17T02:43:33.087518,2025-11-17T02:43:33.087518
ven_000241,Las Vegas Arena 0,Las Vegas,NV,USA,12115,arena,8245 Broadway,21982,2025-11-17T02:43:33.087522,2025-11-17T02:43:33.087522
ven_000242,The New York Venue 1,New York,NY,USA,45234,stadium,4149 Park Ave,59961,2025-11-17T02:43:33.087525,2025-11-17T02:43:33.087526
ven_000243,Uptown Philadelphia Amphitheater 2,Philadelphia,PA,USA,148,club,9252 Market St,13973,2025-11-17T02:43:33.087529,2025-11-17T02:43:33.087529
ven_000244,The Portland Amphitheater 3,Portland,OR,USA,79215,stadium,5372 Center St,43702,2025-11-17T02:43:33.087533,2025-11-17T02:43:33.087533
ven_000245,San Diego Palace 4,San Diego,CA,USA,38983,stadium,7687 Broadway,91009,2025-11-17T02:43:33.087537,2025-11-17T02:43:33.087537
ven_000246,Downtown Cleveland Hall 5,Cleveland,OH,USA,8829,arena,3246 Market St,57386,2025-11-17T02:43:33.087541,2025-11-17T02:43:33.087541
ven_000247,Grand Omaha Hall 6,Omaha,NE,USA,1529,hall,3636 Broadway,92306,2025-11-17T02:43:33.087544,2025-11-17T02:43:33.087544
ven_000248,Raleigh Pavilion 7,Raleigh,NC,USA,10762,arena,7208 Market St,76955,2025-11-17T02:43:33.087548,2025-11-17T02:43:33.087548
ven_000249,Grand Tulsa Theater 8,Tulsa,OK,USA,19326,arena,6907 Center St,44027,2025-11-17T02:43:33.087553,2025-11-17T02:43:33.087553
ven_000250,Portland Auditorium 9,Portland,OR,USA,14729,amphitheater,9161 Market St,56938,2025-11-17T02:43:33.087558,2025-11-17T02:43:33.087558
ven_000251,Classic Cleveland Center 0,Cleveland,OH,USA,1579,theater,4602 Center St,88269,2025-11-17T02:43:33.087563,2025-11-17T02:43:33.087563
ven_000252,Grand Cleveland Center 1,Cleveland,OH,USA,11576,arena,7722 Broadway,38814,2025-11-17T02:43:33.087567,2025-11-17T02:43:33.087567
ven_000253,Historic Seattle Center 2,Seattle,WA,USA,4654,hall,164 Market St,32084,2025-11-17T02:43:33.087571,2025-11-17T02:43:33.087571
ven_000254,Classic Los Angeles Center 3,Los Angeles,CA,USA,763,theater,2550 Park Ave,98846,2025-11-17T02:43:33.087575,2025-11-17T02:43:33.087575
ven_000255,Grand Portland Amphitheater 4,Portland,OR,USA,12736,arena,2873 Broadway,17741,2025-11-17T02:43:33.087579,2025-11-17T02:43:33.087579
ven_000256,San Jose House 5,San Jose,CA,USA,382,club,6298 Market St,97628,2025-11-17T02:43:33.087583,2025-11-17T02:43:33.087583
ven_000257,Detroit Hall 6,Detroit,MI,USA,13171,amphitheater,3291 Broadway,67455,2025-11-17T02:43:33.087588,2025-11-17T02:43:33.087588
ven_000258,Grand Austin Palace 7,Austin,TX,USA,29227,stadium,2903 Broadway,13430,2025-11-17T02:43:33.087592,2025-11-17T02:43:33.087592
ven_000259,Classic Houston Venue 8,Houston,TX,USA,353,club,6282 Center St,81334,2025-11-17T02:43:33.087597,2025-11-17T02:43:33.087597
ven_000260,New York Amphitheater 9,New York,NY,USA,34451,stadium,4225 Park Ave,52000,2025-11-17T02:43:33.087601,2025-11-17T02:43:33.087601
ven_000261,Cleveland Palace 0,Cleveland,OH,USA,994,theater,6909 Center St,15573,2025-11-17T02:43:33.087605,2025-11-17T02:43:33.087605
ven_000262,Oakland Theater 1,Oakland,CA,USA,72331,stadium,1831 Market St,51910,2025-11-17T02:43:33.087610,2025-11-17T02:43:33.087611
ven_000263,Jacksonville Pavilion 2,Jacksonville,FL,USA,19347,arena,6889 Park Ave,96368,2025-11-17T02:43:33.087614,2025-11-17T02:43:33.087614
ven_000264,Historic Minneapolis Theater 3,Minneapolis,MN,USA,6172,arena,5358 Main St,52104,2025-11-17T02:43:33.087618,2025-11-17T02:43:33.087618
ven_000265,Metro Columbus Center 4,Columbus,OH,USA,4886,amphitheater,7554 Main St,80938,2025-11-17T02:43:33.087622,2025-11-17T02:43:33.087622
ven_000266,Imperial Seattle Club 5,Seattle,WA,USA,377,club,7515 Park Ave,68585,2025-11-17T02:43:33.087626,2025-11-17T02:43:33.087626
ven_000267,Las Vegas Club 6,Las Vegas,NV,USA,423,club,1242 Main St,56706,2025-11-17T02:43:33.087630,2025-11-17T02:43:33.087630
ven_000268,Metro San Diego Arena 7,San Diego,CA,USA,13904,amphitheater,981 Broadway,70596,2025-11-17T02:43:33.087634,2025-11-17T02:43:33.087634
ven_000269,Los Angeles Center 8,Los Angeles,CA,USA,5293,arena,6906 Market St,95734,2025-11-17T02:43:33.087638,2025-11-17T02:43:33.087638
ven_000270,Imperial Boston Theater 9,Boston,MA,USA,2092,hall,5657 Park Ave,37114,2025-11-17T02:43:33.087642,2025-11-17T02:43:33.087642
ven_000271,Grand Mesa Club 0,Mesa,AZ,USA,61409,stadium,4472 Market St,39201,2025-11-17T02:43:33.087645,2025-11-17T02:43:33.087645
ven_000272,Portland Pavilion 1,Portland,OR,USA,4613,amphitheater,8716 Main St,85640,2025-11-17T02:43:33.087649,2025-11-17T02:43:33.087649
ven_000273,Charlotte House 2,Charlotte,NC,USA,28535,stadium,1890 Broadway,99463,2025-11-17T02:43:33.087653,2025-11-17T02:43:33.087653
ven_000274,Central Charlotte House 3,Charlotte,NC,USA,41878,stadium,1107 Broadway,94454,2025-11-17T02:43:33.087657,2025-11-17T02:43:33.087657
ven_000275,The Honolulu Arena 4,Honolulu,HI,USA,217,club,9052 Broadway,98806,2025-11-17T02:43:33.087660,2025-11-17T02:43:33.087661
ven_000276,Uptown Anaheim Arena 5,Anaheim,CA,USA,16049,arena,8658 Center St,15843,2025-11-17T02:43:33.087666,2025-11-17T02:43:33.087666
ven_000277,Central Dallas Pavilion 6,Dallas,TX,USA,768,theater,8805 Center St,92201,2025-11-17T02:43:33.087670,2025-11-17T02:43:33.087670
ven_000278,Grand Tampa Hall 7,Tampa,FL,USA,1645,hall,1084 Market St,59002,2025-11-17T02:43:33.087675,2025-11-17T02:43:33.087676
ven_000279,Nashville Venue 8,Nashville,TN,USA,1395,theater,9505 Main St,90330,2025-11-17T02:43:33.087679,2025-11-17T02:43:33.087679
ven_000280,Majestic Atlanta Pavilion 9,Atlanta,GA,USA,6320,arena,5984 Center St,11337,2025-11-17T02:43:33.087683,2025-11-17T02:43:33.087683
ven_000281,St. Louis Venue 0,St. Louis,MO,USA,1655,hall,4283 Center St,66009,2025-11-17T02:43:33.087687,2025-11-17T02:43:33.087687
ven_000282,Majestic Tulsa Center 1,Tulsa,OK,USA,41809,stadium,9124 Park Ave,97943,2025-11-17T02:43:33.087691,2025-11-17T02:43:33.087691
ven_000283,Central Miami Palace 2,Miami,FL,USA,13221,arena,9434 Broadway,20521,2025-11-17T02:43:33.087695,2025-11-17T02:43:33.087695
ven_000284,Houston Hall 3,Houston,TX,USA,496,club,7450 Main St,98348,2025-11-17T02:43:33.087699,2025-11-17T02:43:33.087699
ven_000285,Tucson Palace 4,Tucson,AZ,USA,8988,amphitheater,2603 Center St,36409,2025-11-17T02:43:33.087703,2025-11-17T02:43:33.087703
ven_000286,Metro Seattle Arena 5,Seattle,WA,USA,56143,stadium,9502 Broadway,96008,2025-11-17T02:43:33.087706,2025-11-17T02:43:33.087706
ven_000287,The Omaha Hall 6,Omaha,NE,USA,209,club,3772 Main St,95854,2025-11-17T02:43:33.087712,2025-11-17T02:43:33.087712
ven_000288,Baltimore Club 7,Baltimore,MD,USA,4184,hall,634 Market St,63228,2025-11-17T02:43:33.087716,2025-11-17T02:43:33.087716
ven_000289,Central Colorado Springs Venue 8,Colorado Springs,CO,USA,47980,stadium,4248 Broadway,88191,2025-11-17T02:43:33.087720,2025-11-17T02:43:33.087720
ven_000290,Grand Mesa Stadium 9,Mesa,AZ,USA,4471,hall,7507 Market St,78258,2025-11-17T02:43:33.087724,2025-11-17T02:43:33.087724
ven_000291,Grand Anaheim Stadium 0,Anaheim,CA,USA,9211,amphitheater,5122 Center St,96932,2025-11-17T02:43:33.087727,2025-11-17T02:43:33.087727
ven_000292,Atlanta Venue 1,Atlanta,GA,USA,1388,theater,3825 Market St,18877,2025-11-17T02:43:33.087731,2025-11-17T02:43:33.087731
ven_000293,The Milwaukee Auditorium 2,Milwaukee,WI,USA,13969,arena,3374 Center St,17895,2025-11-17T02:43:33.087737,2025-11-17T02:43:33.087737
ven_000294,Classic San Jose Club 3,San Jose,CA,USA,3221,hall,2755 Main St,58908,2025-11-17T02:43:33.087740,2025-11-17T02:43:33.087741
ven_000295,Classic Dallas Stadium 4,Dallas,TX,USA,2231,hall,596 Broadway,29819,2025-11-17T02:43:33.087744,2025-11-17T02:43:33.087744
ven_000296,Downtown Portland Pavilion 5,Portland,OR,USA,3893,hall,1403 Center St,32610,2025-11-17T02:43:33.087748,2025-11-17T02:43:33.087748
ven_000297,Historic Honolulu Club 6,Honolulu,HI,USA,13500,arena,524 Center St,85943,2025-11-17T02:43:33.087752,2025-11-17T02:43:33.087752
ven_000298,Metro Philadelphia Center 7,Philadelphia,PA,USA,6113,amphitheater,8714 Main St,53719,2025-11-17T02:43:33.087756,2025-11-17T02:43:33.087756
ven_000299,Imperial St. Louis Stadium 8,St. Louis,MO,USA,25559,stadium,7507 Center St,64590,2025-11-17T02:43:33.087761,2025-11-17T02:43:33.087761
ven_000300,Metro Portland House 9,Portland,OR,USA,449,club,3157 Center St,88580,2025-11-17T02:43:33.087765,2025-11-17T02:43:33.087765
ven_000301,Downtown Portland Stadium 0,Portland,OR,USA,30437,stadium,8449 Market St,73336,2025-11-17T02:43:33.087769,2025-11-17T02:43:33.087769
ven_000302,Metro Milwaukee Hall 1,Milwaukee,WI,USA,429,club,5059 Center St,91007,2025-11-17T02:43:33.087773,2025-11-17T02:43:33.087773
ven_000303,Uptown Atlanta Center 2,Atlanta,GA,USA,78509,stadium,4519 Broadway,21135,2025-11-17T02:43:33.087777,2025-11-17T02:43:33.087777
ven_000304,Uptown Anaheim Arena 3,Anaheim,CA,USA,19924,arena,6606 Broadway,25640,2025-11-17T02:43:33.087780,2025-11-17T02:43:33.087780
ven_000305,Uptown Portland Palace 4,Portland,OR,USA,476,club,3188 Park Ave,45904,2025-11-17T02:43:33.087784,2025-11-17T02:43:33.087784
ven_000306,Miami Stadium 5,Miami,FL,USA,57145,stadium,966 Broadway,70326,2025-11-17T02:43:33.087788,2025-11-17T02:43:33.087788
ven_000307,Central Fresno House 6,Fresno,CA,USA,1847,theater,6722 Park Ave,48899,2025-11-17T02:43:33.087792,2025-11-17T02:43:33.087792
ven_000308,Imperial Oakland Theater 7,Oakland,CA,USA,1464,theater,6376 Park Ave,54596,2025-11-17T02:43:33.087796,2025-11-17T02:43:33.087796
ven_000309,Imperial Dallas Stadium 8,Dallas,TX,USA,12431,amphitheater,9406 Broadway,78192,2025-11-17T02:43:33.087800,2025-11-17T02:43:33.087800
ven_000310,Grand Dallas Hall 9,Dallas,TX,USA,174,club,5025 Park Ave,48065,2025-11-17T02:43:33.087804,2025-11-17T02:43:33.087804
ven_000311,Tucson Arena 0,Tucson,AZ,USA,47995,stadium,5108 Center St,29240,2025-11-17T02:43:33.087808,2025-11-17T02:43:33.087808
ven_000312,Cleveland Auditorium 1,Cleveland,OH,USA,415,club,1378 Park Ave,19356,2025-11-17T02:43:33.087812,2025-11-17T02:43:33.087812
ven_000313,Boston Auditorium 2,Boston,MA,USA,483,club,2143 Park Ave,89222,2025-11-17T02:43:33.087816,2025-11-17T02:43:33.087816
ven_000314,Cleveland Pavilion 3,Cleveland,OH,USA,37360,stadium,4299 Center St,71008,2025-11-17T02:43:33.087819,2025-11-17T02:43:33.087820
ven_000315,Washington Auditorium 4,Washington,DC,USA,106,club,46 Park Ave,12508,2025-11-17T02:43:33.087823,2025-11-17T02:43:33.087823
ven_000316,Historic San Francisco Auditorium 5,San Francisco,CA,USA,3931,hall,3616 Broadway,35491,2025-11-17T02:43:33.087827,2025-11-17T02:43:33.087827
ven_000317,Imperial New Orleans Amphitheater 6,New Orleans,LA,USA,486,club,7352 Broadway,97661,2025-11-17T02:43:33.087831,2025-11-17T02:43:33.087831
ven_000318,Downtown New York Arena 7,New York,NY,USA,10549,amphitheater,7386 Park Ave,24177,2025-11-17T02:43:33.087835,2025-11-17T02:43:33.087835
ven_000319,Grand Austin Pavilion 8,Austin,TX,USA,1493,theater,774 Park Ave,53492,2025-11-17T02:43:33.087839,2025-11-17T02:43:33.087839
ven_000320,Mesa Stadium 9,Mesa,AZ,USA,472,club,1762 Main St,23601,2025-11-17T02:43:33.087843,2025-11-17T02:43:33.087843
ven_000321,Uptown New York Center 0,New York,NY,USA,4684,hall,2418 Broadway,11447,2025-11-17T02:43:33.087847,2025-11-17T02:43:33.087847
ven_000322,Majestic Wichita Palace 1,Wichita,KS,USA,345,club,7674 Center St,60442,2025-11-17T02:43:33.087850,2025-11-17T02:43:33.087851
ven_000323,Royal San Diego Auditorium 2,San Diego,CA,USA,379,club,6652 Broadway,31692,2025-11-17T02:43:33.087854,2025-11-17T02:43:33.087854
ven_000324,Charlotte Hall 3,Charlotte,NC,USA,1105,theater,5932 Broadway,21799,2025-11-17T02:43:33.087862,2025-11-17T02:43:33.087862
ven_000325,Los Angeles Club 4,Los Angeles,CA,USA,4050,hall,8542 Center St,27255,2025-11-17T02:43:33.087866,2025-11-17T02:43:33.087866
ven_000326,Modern Columbus Venue 5,Columbus,OH,USA,12773,arena,1349 Park Ave,92894,2025-11-17T02:43:33.087870,2025-11-17T02:43:33.087870
ven_000327,Historic Baltimore Center 6,Baltimore,MD,USA,14020,arena,7974 Market St,87178,2025-11-17T02:43:33.087873,2025-11-17T02:43:33.087873
ven_000328,The Omaha Hall 7,Omaha,NE,USA,2727,hall,1158 Main St,23296,2025-11-17T02:43:33.087877,2025-11-17T02:43:33.087877
ven_000329,Seattle Theater 8,Seattle,WA,USA,18619,arena,1656 Market St,91124,2025-11-17T02:43:33.087881,2025-11-17T02:43:33.087881
ven_000330,Louisville Pavilion 9,Louisville,KY,USA,293,club,7326 Market St,36779,2025-11-17T02:43:33.087885,2025-11-17T02:43:33.087885
ven_000331,Fresno Pavilion 0,Fresno,CA,USA,7291,arena,8231 Market St,80208,2025-11-17T02:43:33.087888,2025-11-17T02:43:33.087888
ven_000332,Anaheim Club 1,Anaheim,CA,USA,1228,theater,5682 Main St,14203,2025-11-17T02:43:33.087892,2025-11-17T02:43:33.087892
ven_000333,Imperial Tulsa Auditorium 2,Tulsa,OK,USA,3936,hall,1244 Main St,26507,2025-11-17T02:43:33.087896,2025-11-17T02:43:33.087896
ven_000334,Washington Club 3,Washington,DC,USA,11567,amphitheater,5156 Center St,65591,2025-11-17T02:43:33.087900,2025-11-17T02:43:33.087900
ven_000335,Modern Nashville Stadium 4,Nashville,TN,USA,1482,hall,9902 Center St,94977,2025-11-17T02:43:33.087904,2025-11-17T02:43:33.087904
ven_000336,Metro New Orleans Club 5,New Orleans,LA,USA,1376,theater,2789 Center St,58443,2025-11-17T02:43:33.087908,2025-11-17T02:43:33.087908
ven_000337,Austin Center 6,Austin,TX,USA,58338,stadium,250 Market St,71401,2025-11-17T02:43:33.087913,2025-11-17T02:43:33.087913
ven_000338,Las Vegas Palace 7,Las Vegas,NV,USA,23368,stadium,7960 Center St,81970,2025-11-17T02:43:33.087917,2025-11-17T02:43:33.087917
ven_000339,Downtown Raleigh Palace 8,Raleigh,NC,USA,9456,amphitheater,3024 Main St,89635,2025-11-17T02:43:33.087922,2025-11-17T02:43:33.087922
ven_000340,Metro Tucson Arena 9,Tucson,AZ,USA,10458,amphitheater,8044 Park Ave,18910,2025-11-17T02:43:33.087926,2025-11-17T02:43:33.087926
ven_000341,Downtown Los Angeles Auditorium 0,Los Angeles,CA,USA,4747,hall,8165 Park Ave,62810,2025-11-17T02:43:33.087930,2025-11-17T02:43:33.087930
ven_000342,Metro Boston Theater 1,Boston,MA,USA,2455,hall,9971 Broadway,70604,2025-11-17T02:43:33.087934,2025-11-17T02:43:33.087934
ven_000343,Classic San Francisco House 2,San Francisco,CA,USA,2023,hall,7556 Main St,44048,2025-11-17T02:43:33.087938,2025-11-17T02:43:33.087938
ven_000344,San Francisco Arena 3,San Francisco,CA,USA,408,club,6901 Market St,82086,2025-11-17T02:43:33.087942,2025-11-17T02:43:33.087942
ven_000345,Tulsa Palace 4,Tulsa,OK,USA,374,club,6684 Main St,33287,2025-11-17T02:43:33.087946,2025-11-17T02:43:33.087946
ven_000346,Majestic Kansas City Hall 5,Kansas City,MO,USA,4823,hall,4180 Center St,83127,2025-11-17T02:43:33.087950,2025-11-17T02:43:33.087950
ven_000347,Central Houston Palace 6,Houston,TX,USA,34731,stadium,7600 Main St,55819,2025-11-17T02:43:33.087954,2025-11-17T02:43:33.087954
ven_000348,Louisville Club 7,Louisville,KY,USA,3552,hall,7803 Center St,71384,2025-11-17T02:43:33.087959,2025-11-17T02:43:33.087959
ven_000349,Denver Palace 8,Denver,CO,USA,13630,amphitheater,5837 Center St,60254,2025-11-17T02:43:33.087963,2025-11-17T02:43:33.087963
ven_000350,Modern Tampa Theater 9,Tampa,FL,USA,100,club,7042 Main St,65045,2025-11-17T02:43:33.087967,2025-11-17T02:43:33.087967
ven_000351,Uptown Colorado Springs Amphitheater 0,Colorado Springs,CO,USA,147,club,8123 Main St,67058,2025-11-17T02:43:33.087971,2025-11-17T02:43:33.087971
ven_000352,Grand Tampa Hall 1,Tampa,FL,USA,311,club,362 Center St,36996,2025-11-17T02:43:33.087975,2025-11-17T02:43:33.087975
ven_000353,Metro Milwaukee House 2,Milwaukee,WI,USA,311,club,649 Main St,26847,2025-11-17T02:43:33.087983,2025-11-17T02:43:33.087983
ven_000354,Uptown Houston Center 3,Houston,TX,USA,6791,arena,7172 Center St,66982,2025-11-17T02:43:33.087987,2025-11-17T02:43:33.087987
ven_000355,Majestic Tulsa Hall 4,Tulsa,OK,USA,298,club,3933 Main St,59404,2025-11-17T02:43:33.087993,2025-11-17T02:43:33.087993
ven_000356,Las Vegas Center 5,Las Vegas,NV,USA,73967,stadium,5053 Park Ave,58932,2025-11-17T02:43:33.087997,2025-11-17T02:43:33.087997
ven_000357,Metro Tucson Palace 6,Tucson,AZ,USA,12592,arena,9049 Broadway,40619,2025-11-17T02:43:33.088001,2025-11-17T02:43:33.088001
ven_000358,Metro St. Louis Amphitheater 7,St. Louis,MO,USA,1132,theater,3801 Main St,50861,2025-11-17T02:43:33.088004,2025-11-17T02:43:33.088004
ven_000359,Nashville Stadium 8,Nashville,TN,USA,26867,stadium,2421 Center St,27909,2025-11-17T02:43:33.088008,2025-11-17T02:43:33.088008
ven_000360,Milwaukee Theater 9,Milwaukee,WI,USA,5512,amphitheater,5172 Broadway,78840,2025-11-17T02:43:33.088012,2025-11-17T02:43:33.088012
ven_000361,Classic Fort Worth Pavilion 0,Fort Worth,TX,USA,10609,amphitheater,5009 Main St,28318,2025-11-17T02:43:33.088016,2025-11-17T02:43:33.088016
ven_000362,Jacksonville Center 1,Jacksonville,FL,USA,4864,hall,2663 Broadway,40958,2025-11-17T02:43:33.088020,2025-11-17T02:43:33.088020
ven_000363,Modern San Francisco Pavilion 2,San Francisco,CA,USA,558,theater,8006 Main St,19067,2025-11-17T02:43:33.088023,2025-11-17T02:43:33.088024
ven_000364,Royal Cleveland Amphitheater 3,Cleveland,OH,USA,11598,arena,158 Main St,54682,2025-11-17T02:43:33.088027,2025-11-17T02:43:33.088027
ven_000365,Royal Denver Club 4,Denver,CO,USA,15733,arena,5033 Park Ave,38905,2025-11-17T02:43:33.088031,2025-11-17T02:43:33.088031
ven_000366,Raleigh Venue 5,Raleigh,NC,USA,8154,amphitheater,4587 Park Ave,44102,2025-11-17T02:43:33.088035,2025-11-17T02:43:33.088035
ven_000367,Majestic Wichita Center 6,Wichita,KS,USA,8998,arena,6945 Main St,50593,2025-11-17T02:43:33.088039,2025-11-17T02:43:33.088039
ven_000368,Metro Phoenix Palace 7,Phoenix,AZ,USA,2992,hall,4108 Market St,49993,2025-11-17T02:43:33.088043,2025-11-17T02:43:33.088043
ven_000369,Grand Philadelphia Amphitheater 8,Philadelphia,PA,USA,3241,hall,1281 Center St,52257,2025-11-17T02:43:33.088047,2025-11-17T02:43:33.088047
ven_000370,Modern Honolulu Amphitheater 9,Honolulu,HI,USA,10309,amphitheater,2286 Park Ave,38553,2025-11-17T02:43:33.088051,2025-11-17T02:43:33.088051
ven_000371,Downtown Memphis Arena 0,Memphis,TN,USA,6624,arena,4240 Center St,14378,2025-11-17T02:43:33.088055,2025-11-17T02:43:33.088055
ven_000372,Omaha Club 1,Omaha,NE,USA,10341,amphitheater,2719 Park Ave,74782,2025-11-17T02:43:33.088058,2025-11-17T02:43:33.088058
ven_000373,Downtown Washington Amphitheater 2,Washington,DC,USA,1649,theater,7333 Center St,12810,2025-11-17T02:43:33.088063,2025-11-17T02:43:33.088063
ven_000374,Grand New Orleans Auditorium 3,New Orleans,LA,USA,4641,hall,2817 Center St,37451,2025-11-17T02:43:33.088067,2025-11-17T02:43:33.088067
ven_000375,Central Kansas City Theater 4,Kansas City,MO,USA,2992,hall,4543 Broadway,98441,2025-11-17T02:43:33.088071,2025-11-17T02:43:33.088071
ven_000376,The Milwaukee Arena 5,Milwaukee,WI,USA,12826,arena,8816 Broadway,63793,2025-11-17T02:43:33.088074,2025-11-17T02:43:33.088075
ven_000377,Seattle Theater 6,Seattle,WA,USA,17944,arena,5211 Center St,81350,2025-11-17T02:43:33.088078,2025-11-17T02:43:33.088078
ven_000378,Royal Los Angeles Amphitheater 7,Los Angeles,CA,USA,477,club,984 Main St,62254,2025-11-17T02:43:33.088082,2025-11-17T02:43:33.088082
ven_000379,Imperial New York Center 8,New York,NY,USA,223,club,8344 Main St,61793,2025-11-17T02:43:33.088088,2025-11-17T02:43:33.088088
ven_000380,The Denver House 9,Denver,CO,USA,274,club,1323 Main St,35207,2025-11-17T02:43:33.088092,2025-11-17T02:43:33.088092
ven_000381,Modern Seattle Venue 0,Seattle,WA,USA,7953,amphitheater,8098 Center St,26271,2025-11-17T02:43:33.088096,2025-11-17T02:43:33.088096
ven_000382,Louisville Stadium 1,Louisville,KY,USA,2218,hall,6081 Main St,44277,2025-11-17T02:43:33.088100,2025-11-17T02:43:33.088100
ven_000383,Historic Columbus Pavilion 2,Columbus,OH,USA,679,theater,1167 Market St,24731,2025-11-17T02:43:33.088104,2025-11-17T02:43:33.088104
ven_000384,Louisville Pavilion 3,Louisville,KY,USA,14783,amphitheater,9515 Park Ave,41273,2025-11-17T02:43:33.088107,2025-11-17T02:43:33.088108
ven_000385,Historic Indianapolis Amphitheater 4,Indianapolis,IN,USA,5817,arena,8475 Market St,94262,2025-11-17T02:43:33.088142,2025-11-17T02:43:33.088142
ven_000386,Metro New York Theater 5,New York,NY,USA,16776,arena,2624 Center St,19617,2025-11-17T02:43:33.088147,2025-11-17T02:43:33.088147
ven_000387,The Phoenix Center 6,Phoenix,AZ,USA,12288,amphitheater,7925 Center St,12885,2025-11-17T02:43:33.088153,2025-11-17T02:43:33.088153
ven_000388,Central San Diego House 7,San Diego,CA,USA,1830,theater,7992 Center St,58214,2025-11-17T02:43:33.088157,2025-11-17T02:43:33.088157
ven_000389,Classic Fort Worth Stadium 8,Fort Worth,TX,USA,213,club,7444 Market St,65651,2025-11-17T02:43:33.088160,2025-11-17T02:43:33.088161
ven_000390,Uptown Tucson House 9,Tucson,AZ,USA,613,theater,8657 Center St,40222,2025-11-17T02:43:33.088165,2025-11-17T02:43:33.088165
ven_000391,Modern Detroit Stadium 0,Detroit,MI,USA,66181,stadium,5530 Main St,42483,2025-11-17T02:43:33.088170,2025-11-17T02:43:33.088170
ven_000392,Uptown Jacksonville Arena 1,Jacksonville,FL,USA,3946,hall,5109 Market St,60314,2025-11-17T02:43:33.088174,2025-11-17T02:43:33.088174
ven_000393,Milwaukee House 2,Milwaukee,WI,USA,806,theater,128 Center St,20336,2025-11-17T02:43:33.088177,2025-11-17T02:43:33.088177
ven_000394,Central Detroit Hall 3,Detroit,MI,USA,353,club,1497 Main St,62990,2025-11-17T02:43:33.088181,2025-11-17T02:43:33.088181
ven_000395,Atlanta Palace 4,Atlanta,GA,USA,4857,hall,6681 Broadway,63069,2025-11-17T02:43:33.088185,2025-11-17T02:43:33.088185
ven_000396,Grand Tucson Stadium 5,Tucson,AZ,USA,1526,theater,8493 Center St,65825,2025-11-17T02:43:33.088189,2025-11-17T02:43:33.088189
ven_000397,Nashville House 6,Nashville,TN,USA,30260,stadium,4228 Market St,22585,2025-11-17T02:43:33.088192,2025-11-17T02:43:33.088193
ven_000398,Modern Minneapolis Arena 7,Minneapolis,MN,USA,61244,stadium,6394 Park Ave,59730,2025-11-17T02:43:33.088196,2025-11-17T02:43:33.088196
ven_000399,Royal Charlotte Theater 8,Charlotte,NC,USA,1325,hall,2142 Main St,41198,2025-11-17T02:43:33.088200,2025-11-17T02:43:33.088200
ven_000400,Downtown Raleigh Pavilion 9,Raleigh,NC,USA,12644,arena,7768 Center St,34403,2025-11-17T02:43:33.088204,2025-11-17T02:43:33.088204
ven_000401,Modern Tampa Club 0,Tampa,FL,USA,5643,arena,6047 Park Ave,53527,2025-11-17T02:43:33.088208,2025-11-17T02:43:33.088208
ven_000402,Tulsa Auditorium 1,Tulsa,OK,USA,4678,amphitheater,444 Market St,67306,2025-11-17T02:43:33.088212,2025-11-17T02:43:33.088212
ven_000403,Grand Tampa Hall 2,Tampa,FL,USA,68310,stadium,5293 Park Ave,90944,2025-11-17T02:43:33.088215,2025-11-17T02:43:33.088216
ven_000404,Majestic Memphis Stadium 3,Memphis,TN,USA,10299,amphitheater,3131 Main St,32568,2025-11-17T02:43:33.088219,2025-11-17T02:43:33.088219
ven_000405,Classic Fresno Stadium 4,Fresno,CA,USA,3825,hall,1977 Market St,78654,2025-11-17T02:43:33.088223,2025-11-17T02:43:33.088223
ven_000406,Grand Oakland Arena 5,Oakland,CA,USA,175,club,4124 Broadway,68010,2025-11-17T02:43:33.088227,2025-11-17T02:43:33.088227
ven_000407,Wichita Hall 6,Wichita,KS,USA,11092,arena,2599 Main St,95542,2025-11-17T02:43:33.088231,2025-11-17T02:43:33.088231
ven_000408,Modern Columbus Theater 7,Columbus,OH,USA,19719,arena,9663 Broadway,56837,2025-11-17T02:43:33.088234,2025-11-17T02:43:33.088235
ven_000409,Uptown Houston Arena 8,Houston,TX,USA,10975,arena,9068 Broadway,96936,2025-11-17T02:43:33.088238,2025-11-17T02:43:33.088238
ven_000410,Downtown San Jose Amphitheater 9,San Jose,CA,USA,336,club,927 Main St,65726,2025-11-17T02:43:33.088242,2025-11-17T02:43:33.088242
ven_000411,Classic Seattle Theater 0,Seattle,WA,USA,274,club,9623 Market St,17175,2025-11-17T02:43:33.088246,2025-11-17T02:43:33.088246
ven_000412,Modern Portland Center 1,Portland,OR,USA,5401,arena,6356 Center St,68316,2025-11-17T02:43:33.088250,2025-11-17T02:43:33.088250
ven_000413,Sacramento Pavilion 2,Sacramento,CA,USA,488,club,7876 Center St,14602,2025-11-17T02:43:33.088253,2025-11-17T02:43:33.088254
ven_000414,Downtown Sacramento Center 3,Sacramento,CA,USA,32653,stadium,7832 Market St,80148,2025-11-17T02:43:33.088257,2025-11-17T02:43:33.088257
ven_000415,Colorado Springs Stadium 4,Colorado Springs,CO,USA,4470,hall,398 Main St,12073,2025-11-17T02:43:33.088261,2025-11-17T02:43:33.088261
ven_000416,Dallas Venue 5,Dallas,TX,USA,9082,amphitheater,193 Market St,59357,2025-11-17T02:43:33.088265,2025-11-17T02:43:33.088265
ven_000417,Grand Oakland Venue 6,Oakland,CA,USA,12843,arena,9425 Park Ave,87201,2025-11-17T02:43:33.088270,2025-11-17T02:43:33.088270
ven_000418,Imperial San Diego Auditorium 7,San Diego,CA,USA,39484,stadium,5297 Main St,50556,2025-11-17T02:43:33.088274,2025-11-17T02:43:33.088274
ven_000419,Classic New York Auditorium 8,New York,NY,USA,3512,hall,3693 Main St,80843,2025-11-17T02:43:33.088279,2025-11-17T02:43:33.088279
ven_000420,The Milwaukee Center 9,Milwaukee,WI,USA,1267,theater,9226 Park Ave,52987,2025-11-17T02:43:33.088284,2025-11-17T02:43:33.088284
ven_000421,Royal St. Louis Club 0,St. Louis,MO,USA,11803,amphitheater,5233 Center St,23609,2025-11-17T02:43:33.088288,2025-11-17T02:43:33.088288
ven_000422,Dallas Pavilion 1,Dallas,TX,USA,292,club,376 Market St,46685,2025-11-17T02:43:33.088291,2025-11-17T02:43:33.088291
ven_000423,Imperial Omaha Palace 2,Omaha,NE,USA,324,club,2680 Center St,99032,2025-11-17T02:43:33.088295,2025-11-17T02:43:33.088295
ven_000424,Seattle House 3,Seattle,WA,USA,9376,arena,7875 Broadway,40862,2025-11-17T02:43:33.088299,2025-11-17T02:43:33.088299
ven_000425,Columbus Auditorium 4,Columbus,OH,USA,1838,theater,9455 Broadway,57678,2025-11-17T02:43:33.088302,2025-11-17T02:43:33.088303
ven_000426,Classic Miami House 5,Miami,FL,USA,1861,hall,5451 Main St,43142,2025-11-17T02:43:33.088306,2025-11-17T02:43:33.088306
ven_000427,Imperial Baltimore Palace 6,Baltimore,MD,USA,59600,stadium,7269 Broadway,31232,2025-11-17T02:43:33.088311,2025-11-17T02:43:33.088311
ven_000428,The Phoenix Auditorium 7,Phoenix,AZ,USA,249,club,2430 Market St,95872,2025-11-17T02:43:33.088315,2025-11-17T02:43:33.088315
ven_000429,Central Las Vegas House 8,Las Vegas,NV,USA,4699,hall,1423 Broadway,85305,2025-11-17T02:43:33.088319,2025-11-17T02:43:33.088319
ven_000430,Tulsa House 9,Tulsa,OK,USA,712,theater,6377 Market St,82220,2025-11-17T02:43:33.088323,2025-11-17T02:43:33.088323
ven_000431,Uptown Louisville House 0,Louisville,KY,USA,4839,amphitheater,6813 Main St,74739,2025-11-17T02:43:33.088327,2025-11-17T02:43:33.088327
ven_000432,Jacksonville Arena 1,Jacksonville,FL,USA,7594,arena,7526 Market St,93905,2025-11-17T02:43:33.088331,2025-11-17T02:43:33.088331
ven_000433,Royal Nashville Auditorium 2,Nashville,TN,USA,280,club,7439 Center St,38440,2025-11-17T02:43:33.088334,2025-11-17T02:43:33.088335
ven_000434,Royal Fresno Center 3,Fresno,CA,USA,879,theater,9722 Park Ave,74017,2025-11-17T02:43:33.088338,2025-11-17T02:43:33.088339
ven_000435,Denver Auditorium 4,Denver,CO,USA,13978,amphitheater,8752 Broadway,85453,2025-11-17T02:43:33.088342,2025-11-17T02:43:33.088342
ven_000436,Royal Mesa Stadium 5,Mesa,AZ,USA,9327,amphitheater,8740 Broadway,24841,2025-11-17T02:43:33.088346,2025-11-17T02:43:33.088346
ven_000437,Metro San Antonio Theater 6,San Antonio,TX,USA,391,club,9749 Park Ave,73888,2025-11-17T02:43:33.088351,2025-11-17T02:43:33.088352
ven_000438,Classic San Francisco Arena 7,San Francisco,CA,USA,341,club,9610 Center St,69005,2025-11-17T02:43:33.088355,2025-11-17T02:43:33.088356
ven_000439,Central Boston Hall 8,Boston,MA,USA,15870,arena,9096 Market St,36079,2025-11-17T02:43:33.088360,2025-11-17T02:43:33.088360
ven_000440,Historic Cleveland Amphitheater 9,Cleveland,OH,USA,9346,amphitheater,9133 Park Ave,42360,2025-11-17T02:43:33.088363,2025-11-17T02:43:33.088363
ven_000441,Modern Baltimore Center 0,Baltimore,MD,USA,321,club,277 Main St,10725,2025-11-17T02:43:33.088367,2025-11-17T02:43:33.088367
ven_000442,Columbus Club 1,Columbus,OH,USA,8290,amphitheater,8160 Main St,35309,2025-11-17T02:43:33.088370,2025-11-17T02:43:33.088370
ven_000443,Chicago Arena 2,Chicago,IL,USA,333,club,7497 Broadway,60897,2025-11-17T02:43:33.088374,2025-11-17T02:43:33.088374
ven_000444,Columbus Theater 3,Columbus,OH,USA,62411,stadium,7457 Center St,80181,2025-11-17T02:43:33.088377,2025-11-17T02:43:33.088377
ven_000445,Classic Houston Palace 4,Houston,TX,USA,4706,hall,951 Center St,57195,2025-11-17T02:43:33.088380,2025-11-17T02:43:33.088380
ven_000446,Minneapolis Pavilion 5,Minneapolis,MN,USA,9726,amphitheater,6962 Broadway,78414,2025-11-17T02:43:33.088384,2025-11-17T02:43:33.088384
ven_000447,Grand Tampa Amphitheater 6,Tampa,FL,USA,1026,theater,1134 Park Ave,62019,2025-11-17T02:43:33.088387,2025-11-17T02:43:33.088387
ven_000448,Downtown Honolulu Palace 7,Honolulu,HI,USA,13448,arena,870 Main St,89439,2025-11-17T02:43:33.088392,2025-11-17T02:43:33.088392
ven_000449,Oakland Venue 8,Oakland,CA,USA,266,club,4889 Park Ave,68639,2025-11-17T02:43:33.088395,2025-11-17T02:43:33.088395
ven_000450,Majestic Boston Amphitheater 9,Boston,MA,USA,2294,hall,3066 Main St,38835,2025-11-17T02:43:33.088398,2025-11-17T02:43:33.088398
ven_000451,Historic Washington Center 0,Washington,DC,USA,14024,arena,6246 Broadway,69232,2025-11-17T02:43:33.088402,2025-11-17T02:43:33.088402
ven_000452,Imperial Tulsa Arena 1,Tulsa,OK,USA,4051,hall,6786 Market St,88663,2025-11-17T02:43:33.088405,2025-11-17T02:43:33.088405
ven_000453,Modern Boston Arena 2,Boston,MA,USA,3341,hall,3940 Park Ave,19702,2025-11-17T02:43:33.088409,2025-11-17T02:43:33.088409
ven_000454,Historic St. Louis Hall 3,St. Louis,MO,USA,4484,amphitheater,1526 Center St,25178,2025-11-17T02:43:33.088412,2025-11-17T02:43:33.088412
ven_000455,Charlotte Center 4,Charlotte,NC,USA,1671,hall,2692 Broadway,63389,2025-11-17T02:43:33.088415,2025-11-17T02:43:33.088415
ven_000456,Atlanta Stadium 5,Atlanta,GA,USA,200,club,3092 Park Ave,23782,2025-11-17T02:43:33.088419,2025-11-17T02:43:33.088419
ven_000457,Austin Club 6,Austin,TX,USA,354,club,4707 Market St,53603,2025-11-17T02:43:33.088422,2025-11-17T02:43:33.088422
ven_000458,Modern Memphis Club 7,Memphis,TN,USA,15209,arena,6942 Main St,59885,2025-11-17T02:43:33.088426,2025-11-17T02:43:33.088426
ven_000459,Modern Memphis House 8,Memphis,TN,USA,12162,amphitheater,9655 Market St,49422,2025-11-17T02:43:33.088431,2025-11-17T02:43:33.088431
ven_000460,Nashville Amphitheater 9,Nashville,TN,USA,45012,stadium,1083 Market St,99649,2025-11-17T02:43:33.088434,2025-11-17T02:43:33.088434
ven_000461,Grand Raleigh Theater 0,Raleigh,NC,USA,7531,amphitheater,5743 Park Ave,22522,2025-11-17T02:43:33.088438,2025-11-17T02:43:33.088438
ven_000462,Royal Los Angeles Amphitheater 1,Los Angeles,CA,USA,12939,amphitheater,3266 Main St,28186,2025-11-17T02:43:33.088441,2025-11-17T02:43:33.088441
ven_000463,Historic Kansas City Venue 2,Kansas City,MO,USA,3981,hall,3062 Market St,72467,2025-11-17T02:43:33.088445,2025-11-17T02:43:33.088445
ven_000464,Modern Nashville Arena 3,Nashville,TN,USA,369,club,9772 Park Ave,83206,2025-11-17T02:43:33.088448,2025-11-17T02:43:33.088448
ven_000465,Downtown San Jose Center 4,San Jose,CA,USA,169,club,1193 Broadway,14933,2025-11-17T02:43:33.088452,2025-11-17T02:43:33.088452
ven_000466,Downtown Oakland Arena 5,Oakland,CA,USA,777,theater,2466 Broadway,24527,2025-11-17T02:43:33.088455,2025-11-17T02:43:33.088455
ven_000467,Majestic Honolulu House 6,Honolulu,HI,USA,10036,amphitheater,4893 Main St,61867,2025-11-17T02:43:33.088458,2025-11-17T02:43:33.088459
ven_000468,New Orleans Arena 7,New Orleans,LA,USA,16054,arena,2872 Main St,27584,2025-11-17T02:43:33.088462,2025-11-17T02:43:33.088462
ven_000469,Portland Center 8,Portland,OR,USA,398,club,343 Park Ave,30869,2025-11-17T02:43:33.088465,2025-11-17T02:43:33.088465
ven_000470,Downtown Nashville Venue 9,Nashville,TN,USA,5398,arena,2499 Park Ave,42673,2025-11-17T02:43:33.088469,2025-11-17T02:43:33.088469
ven_000471,Grand Baltimore Center 0,Baltimore,MD,USA,907,theater,5851 Main St,71285,2025-11-17T02:43:33.088472,2025-11-17T02:43:33.088472
ven_000472,Grand San Diego Amphitheater 1,San Diego,CA,USA,9482,arena,8100 Market St,77640,2025-11-17T02:43:33.088476,2025-11-17T02:43:33.088476
ven_000473,Imperial Anaheim House 2,Anaheim,CA,USA,1783,theater,7650 Park Ave,75799,2025-11-17T02:43:33.088479,2025-11-17T02:43:33.088479
ven_000474,Historic San Diego Palace 3,San Diego,CA,USA,1533,theater,9767 Main St,41395,2025-11-17T02:43:33.088482,2025-11-17T02:43:33.088482
ven_000475,Columbus Arena 4,Columbus,OH,USA,4714,hall,3284 Broadway,76098,2025-11-17T02:43:33.088486,2025-11-17T02:43:33.088486
ven_000476,Jacksonville Stadium 5,Jacksonville,FL,USA,26986,stadium,3698 Park Ave,97324,2025-11-17T02:43:33.088489,2025-11-17T02:43:33.088489
ven_000477,Historic Tulsa Pavilion 6,Tulsa,OK,USA,834,theater,8995 Center St,52294,2025-11-17T02:43:33.088492,2025-11-17T02:43:33.088492
ven_000478,Majestic Austin Arena 7,Austin,TX,USA,8891,amphitheater,4130 Park Ave,46948,2025-11-17T02:43:33.088496,2025-11-17T02:43:33.088496
ven_000479,The San Diego Amphitheater 8,San Diego,CA,USA,108,club,170 Market St,48186,2025-11-17T02:43:33.088503,2025-11-17T02:43:33.088503
ven_000480,Nashville House 9,Nashville,TN,USA,4163,amphitheater,8453 Broadway,82528,2025-11-17T02:43:33.088507,2025-11-17T02:43:33.088507
ven_000481,Historic Omaha Club 0,Omaha,NE,USA,4154,hall,4706 Center St,51787,2025-11-17T02:43:33.088510,2025-11-17T02:43:33.088510
ven_000482,Historic San Diego House 1,San Diego,CA,USA,47426,stadium,3130 Park Ave,12993,2025-11-17T02:43:33.088514,2025-11-17T02:43:33.088514
ven_000483,New York Amphitheater 2,New York,NY,USA,14260,amphitheater,8741 Park Ave,36068,2025-11-17T02:43:33.088517,2025-11-17T02:43:33.088517
ven_000484,Wichita Amphitheater 3,Wichita,KS,USA,11743,arena,7464 Park Ave,28367,2025-11-17T02:43:33.088520,2025-11-17T02:43:33.088520
ven_000485,Grand Mesa Club 4,Mesa,AZ,USA,2882,hall,7504 Park Ave,44912,2025-11-17T02:43:33.088524,2025-11-17T02:43:33.088524
ven_000486,Majestic San Diego House 5,San Diego,CA,USA,1583,hall,7643 Park Ave,90991,2025-11-17T02:43:33.088527,2025-11-17T02:43:33.088527
ven_000487,Indianapolis Arena 6,Indianapolis,IN,USA,3535,amphitheater,2198 Park Ave,12926,2025-11-17T02:43:33.088532,2025-11-17T02:43:33.088532
ven_000488,Grand San Antonio Amphitheater 7,San Antonio,TX,USA,13122,arena,912 Center St,75250,2025-11-17T02:43:33.088535,2025-11-17T02:43:33.088535
ven_000489,Central New York Pavilion 8,New York,NY,USA,1828,hall,6245 Main St,42451,2025-11-17T02:43:33.088539,2025-11-17T02:43:33.088539
ven_000490,Metro Columbus House 9,Columbus,OH,USA,9504,arena,867 Park Ave,32601,2025-11-17T02:43:33.088542,2025-11-17T02:43:33.088542
ven_000491,Historic Indianapolis Theater 0,Indianapolis,IN,USA,2469,hall,1955 Park Ave,21416,2025-11-17T02:43:33.088545,2025-11-17T02:43:33.088546
ven_000492,Grand Tampa Hall 1,Tampa,FL,USA,16306,arena,3822 Park Ave,89692,2025-11-17T02:43:33.088553,2025-11-17T02:43:33.088553
ven_000493,Uptown Washington Hall 2,Washington,DC,USA,14948,amphitheater,4283 Park Ave,39658,2025-11-17T02:43:33.088556,2025-11-17T02:43:33.088556
ven_000494,Minneapolis Auditorium 3,Minneapolis,MN,USA,73327,stadium,4999 Park Ave,63912,2025-11-17T02:43:33.088560,2025-11-17T02:43:33.088560
ven_000495,Majestic St. Louis Amphitheater 4,St. Louis,MO,USA,13587,arena,53 Broadway,49581,2025-11-17T02:43:33.088563,2025-11-17T02:43:33.088563
ven_000496,Miami Stadium 5,Miami,FL,USA,305,club,7909 Market St,79833,2025-11-17T02:43:33.088567,2025-11-17T02:43:33.088567
ven_000497,New Orleans Stadium 6,New Orleans,LA,USA,4839,hall,1867 Market St,12266,2025-11-17T02:43:33.088570,2025-11-17T02:43:33.088570
ven_000498,Historic Atlanta Pavilion 7,Atlanta,GA,USA,11221,arena,8926 Main St,55745,2025-11-17T02:43:33.088573,2025-11-17T02:43:33.088573
ven_000499,Downtown St. Louis Venue 8,St. Louis,MO,USA,53735,stadium,1648 Main St,46548,2025-11-17T02:43:33.088581,2025-11-17T02:43:33.088581
ven_000500,Cleveland Center 9,Cleveland,OH,USA,5367,arena,1136 Park Ave,11825,2025-11-17T02:43:33.088586,2025-11-17T02:43:33.088586
